NORAD_CAT_ID,OBJECT_NAME,OBJECT_TYPE,EPOCH,MEAN_MOTION,ECCENTRICITY,INCLINATION,RA_OF_ASC_NODE,ARG_OF_PERICENTER,MEAN_ANOMALY,BSTAR,MEAN_MOTION_DOT,MEAN_MOTION_DDOT,TLE_LINE0,TLE_LINE1,TLE_LINE2,SEMIMAJOR_AXIS,PERIOD,APOGEE,PERIGEE,DECAYED
49749,STARLINK-3250,PAYLOAD,2022-05-25 14:00:01,15.08831565,0.0002058,53.2121,242.6255,41.8277,108.5078,0.00057446,8.864e-05,0.0,0 STARLINK-3250,1 49749U 21115AB  22145.58334491  .00008864  00000-0  57446-3 0  9999,2 49749  53.2121 242.6255 0002058  41.8277 108.5078 15.08831565 27683,6917.906,95.438,541.195,538.347,0.0
49749,STARLINK-3250,PAYLOAD,2022-05-25 18:06:21,15.08843475,0.0002121,53.2131,241.8569,37.9943,322.1199,7.8293e-05,9.58e-06,0.0,0 STARLINK-3250,1 49749U 21115AB  22145.75441973  .00000958  00000-0  78293-4 0  9992,2 49749  53.2131 241.8569 0002121  37.9943 322.1199 15.08843475 26602,6917.87,95.437,541.202,538.267,0.0
49749,STARLINK-3250,PAYLOAD,2022-05-26 13:10:59,15.08834566,0.000193,53.2126,238.2863,43.5368,316.5776,0.0001317,1.808e-05,0.0,0 STARLINK-3250,1 49749U 21115AB  22146.54930260  .00001808  00000-0  13170-3 0  9999,2 49749  53.2126 238.2863 0001930  43.5368 316.5776 15.08834566 26726,6917.897,95.438,541.097,538.427,0.0
49749,STARLINK-3250,PAYLOAD,2022-05-26 22:00:00,15.08844782,0.0001836,53.212,236.6384,38.4657,158.274,-0.0040178,-0.00063676,0.0,0 STARLINK-3250,1 49749U 21115AB  22146.91667824 -.00063676  00000-0 -40178-2 0  9993,2 49749  53.2120 236.6384 0001836  38.4657 158.2740 15.08844782 27880,6917.866,95.437,541.001,538.461,0.0
49749,STARLINK-3250,PAYLOAD,2022-05-27 06:00:00,15.08810795,0.0001764,53.2122,235.1414,44.6254,163.6849,0.001498,0.00023614,0.0,0 STARLINK-3250,1 49749U 21115AB  22147.25001157  .00023614  00000-0  14980-2 0  9990,2 49749  53.2122 235.1414 0001764  44.6254 163.6849 15.08810795 27935,6917.97,95.439,541.055,538.614,0.0
49749,STARLINK-3250,PAYLOAD,2022-05-27 14:00:01,15.08808183,0.0001975,53.212,233.6468,39.5215,180.357,0.0013003,0.00020449,0.0,0 STARLINK-3250,1 49749U 21115AB  22147.58334491  .00020449  00000-0  13003-2 0  9994,2 49749  53.2120 233.6468 0001975  39.5215 180.3570 15.08808183  1307,6917.978,95.44,541.209,538.476,0.0
49749,STARLINK-3250,PAYLOAD,2022-05-27 22:00:01,15.08843353,0.0001852,53.2117,232.149,40.3225,191.1858,-0.0012652,-0.0002037,0.0,0 STARLINK-3250,1 49749U 21115AB  22147.91668981 -.00020370  00000-0 -12652-2 0  9999,2 49749  53.2117 232.1490 0001852  40.3225 191.1858 15.08843353 28044,6917.87,95.437,541.016,538.454,0.0
49749,STARLINK-3250,PAYLOAD,2022-05-28 14:00:01,15.08840909,0.0001993,53.2115,229.1575,39.4977,215.1454,0.0015164,0.00023929,0.0,0 STARLINK-3250,1 49749U 21115AB  22148.58334491  .00023929  00000-0  15164-2 0  9991,2 49749  53.2115 229.1575 0001993  39.4977 215.1454 15.08840909 28145,6917.878,95.437,541.121,538.364,0.0
49749,STARLINK-3250,PAYLOAD,2022-05-28 22:00:00,15.08876261,0.0001841,53.2111,227.6596,38.4974,227.7671,-0.0026503,-0.00042263,0.0,0 STARLINK-3250,1 49749U 21115AB  22148.91667824 -.00042263  00000-0 -26503-2 0  9990,2 49749  53.2111 227.6596 0001841  38.4974 227.7671 15.08876261  1304,6917.77,95.435,540.908,538.361,0.0
49749,STARLINK-3250,PAYLOAD,2022-05-29 06:00:02,15.088646,0.0001711,53.2112,226.1627,42.1688,235.7553,-0.0022699,-0.00036257,0.0,0 STARLINK-3250,1 49749U 21115AB  22149.25002315 -.00036257  00000-0 -22699-2 0  9994,2 49749  53.2112 226.1627 0001711  42.1688 235.7553 15.08864600 28248,6917.805,95.436,540.854,538.487,0.0
49749,STARLINK-3250,PAYLOAD,2022-05-29 14:00:01,15.08819548,0.0001949,53.2111,224.668,36.1547,253.3216,-0.00028633,-4.84e-05,0.0,0 STARLINK-3250,1 49749U 21115AB  22149.58334491 -.00004840  00000-0 -28633-3 0  9991,2 49749  53.2111 224.6680 0001949  36.1547 253.3216 15.08819548  1300,6917.943,95.439,541.156,538.46,0.0
49749,STARLINK-3250,PAYLOAD,2022-05-29 22:00:00,15.08816687,0.0001881,53.2108,223.1701,38.1103,262.9427,-0.0015082,-0.00024196,0.0,0 STARLINK-3250,1 49749U 21115AB  22149.91667824 -.00024196  00000-0 -15082-2 0  9996,2 49749  53.2108 223.1701 0001881  38.1103 262.9427 15.08816687  1300,6917.952,95.439,541.118,538.515,0.0
49749,STARLINK-3250,PAYLOAD,2022-05-30 06:00:00,15.08818297,0.0001858,53.2109,221.6733,42.9003,269.7048,0.00033655,5.069e-05,0.0,0 STARLINK-3250,1 49749U 21115AB  22150.25001157  .00005069  00000-0  33655-3 0  9999,2 49749  53.2109 221.6733 0001858  42.9003 269.7048 15.08818297 28396,6917.947,95.439,541.097,538.526,0.0
49749,STARLINK-3250,PAYLOAD,2022-05-30 14:09:33,15.08828276,0.0002023,53.2125,220.149,44.1513,315.964,-0.00016366,-2.891e-05,0.0,0 STARLINK-3250,1 49749U 21115AB  22150.58996644 -.00002891  00000-0 -16366-3 0  9991,2 49749  53.2125 220.1490 0002023  44.1513 315.9640 15.08828276 27336,6917.916,95.438,541.181,538.382,0.0
49749,STARLINK-3250,PAYLOAD,2022-05-30 22:00:00,15.08852639,0.0001909,53.2109,218.6806,35.8368,299.9025,-0.00081726,-0.00013276,0.0,0 STARLINK-3250,1 49749U 21115AB  22150.91667824 -.00013276  00000-0 -81726-3 0  9994,2 49749  53.2109 218.6806 0001909  35.8368 299.9025 15.08852639  1305,6917.842,95.437,541.027,538.386,0.0
49749,STARLINK-3250,PAYLOAD,2022-05-31 06:00:02,15.08864042,0.0001892,53.2122,217.1803,39.4172,307.9873,-0.00033301,-5.588e-05,0.0,0 STARLINK-3250,1 49749U 21115AB  22151.25002315 -.00005588  00000-0 -33301-3 0  9993,2 49749  53.2122 217.1803 0001892  39.4172 307.9873 15.08864042 28542,6917.807,95.436,540.981,538.363,0.0
49749,STARLINK-3250,PAYLOAD,2022-05-31 14:00:18,15.08849451,0.0001874,53.212,215.6857,35.1627,324.9489,8.0174e-05,9.88e-06,0.0,0 STARLINK-3250,1 49749U 21115AB  22151.58354437  .00000988  00000-0  80174-4 0  9992,2 49749  53.2120 215.6857 0001874  35.1627 324.9489 15.08849451 28594,6917.852,95.437,541.013,538.42,0.0
49749,STARLINK-3250,PAYLOAD,2022-05-31 22:00:00,15.0886112,0.0002039,53.2108,214.1908,38.7988,331.7814,-0.0024126,-0.00038503,0.0,0 STARLINK-3250,1 49749U 21115AB  22151.91667824 -.00038503  00000-0 -24126-2 0  9995,2 49749  53.2108 214.1908 0002039  38.7988 331.7814 15.08861120 28645,6917.816,95.436,541.091,538.27,0.0
49749,STARLINK-3250,PAYLOAD,2022-06-01 14:00:01,15.08830043,0.0002234,53.2109,211.1993,37.5547,356.2343,0.0019312,0.00030573,0.0,0 STARLINK-3250,1 49749U 21115AB  22152.58334491  .00030573  00000-0  19312-2 0  9998,2 49749  53.2109 211.1993 0002234  37.5547 356.2343 15.08830043 28742,6917.911,95.438,541.321,538.23,0.0
49749,STARLINK-3250,PAYLOAD,2022-06-01 20:00:01,15.08869062,0.0002101,53.2107,210.0756,37.4432,275.0382,-0.0048422,-0.00076597,0.0,0 STARLINK-3250,1 49749U 21115AB  22152.83334491 -.00076597  00000-0 -48422-2 0  9998,2 49749  53.2107 210.0756 0002101  37.4432 275.0382 15.08869062 28788,6917.792,95.436,541.11,538.203,0.0
49749,STARLINK-3250,PAYLOAD,2022-06-02 20:03:26,15.08836542,0.0002071,53.2121,205.5746,39.196,320.9182,-9.7502e-05,-1.84e-05,0.0,0 STARLINK-3250,1 49749U 21115AB  22153.83571841 -.00001840  00000-0 -97502-4 0  9995,2 49749  53.2121 205.5746 0002071  39.1960 320.9182 15.08836542 28935,6917.891,95.438,541.189,538.323,0.0
49749,STARLINK-3250,PAYLOAD,2022-06-03 11:57:17,15.08834868,0.0002111,53.2123,202.6005,39.7169,320.3977,-5.5719e-06,-3.77e-06,0.0,0 STARLINK-3250,1 49749U 21115AB  22154.49811729 -.00000377  00000-0 -55719-5 0  9999,2 49749  53.2123 202.6005 0002111  39.7169 320.3977 15.08834868 27928,6917.896,95.438,541.221,538.301,0.0
49749,STARLINK-3250,PAYLOAD,2022-06-04 03:51:08,15.08831989,0.0002058,53.2135,199.6271,41.6545,318.4604,8.4244e-05,1.053e-05,0.0,0 STARLINK-3250,1 49749U 21115AB  22155.16051691  .00001053  00000-0  84244-4 0  9992,2 49749  53.2135 199.6271 0002058  41.6545 318.4604 15.08831989 29132,6917.905,95.438,541.194,538.346,0.0
49749,STARLINK-3250,PAYLOAD,2022-06-04 10:12:41,15.08833818,0.000208,53.2135,198.4376,42.0891,318.0261,9.2854e-05,1.19e-05,0.0,0 STARLINK-3250,1 49749U 21115AB  22155.42547673  .00001190  00000-0  92854-4 0  9999,2 49749  53.2135 198.4376 0002080  42.0891 318.0261 15.08833818 28068,6917.899,95.438,541.203,538.325,0.0
49749,STARLINK-3250,PAYLOAD,2022-06-05 22:00:00,15.0883179,0.0002068,53.2117,191.7427,42.324,142.1898,0.0018119,0.0002866,0.0,0 STARLINK-3250,1 49749U 21115AB  22156.91667824  .00028660  00000-0  18119-2 0  9996,2 49749  53.2117 191.7427 0002068  42.3240 142.1898 15.08831790 29394,6917.905,95.438,541.201,538.34,0.0
49749,STARLINK-3250,PAYLOAD,2022-06-06 14:00:01,15.08811301,0.0002258,53.2118,188.7515,37.2786,170.4348,0.0018828,0.00029781,0.0,0 STARLINK-3250,1 49749U 21115AB  22157.58334491  .00029781  00000-0  18828-2 0  9993,2 49749  53.2118 188.7515 0002258  37.2786 170.4348 15.08811301 29499,6917.968,95.439,541.395,538.271,0.0
49749,STARLINK-3250,PAYLOAD,2022-06-06 19:26:34,15.08835663,0.0002252,53.2133,187.7313,42.9861,317.1307,-4.6833e-05,-1.034e-05,0.0,0 STARLINK-3250,1 49749U 21115AB  22157.81011697 -.00001034  00000-0 -46833-4 0  9991,2 49749  53.2133 187.7313 0002252  42.9861 317.1307 15.08835663 29539,6917.894,95.438,541.317,538.201,0.0
49749,STARLINK-3250,PAYLOAD,2022-06-07 08:09:38,15.0883995,0.0002173,53.2135,185.3512,45.6917,314.4253,-2.7103e-05,-7.2e-06,0.0,0 STARLINK-3250,1 49749U 21115AB  22158.34003327 -.00000720  00000-0 -27103-4 0  9991,2 49749  53.2135 185.3512 0002173  45.6917 314.4253 15.08839950 28509,6917.881,95.438,541.249,538.242,0.0
49749,STARLINK-3250,PAYLOAD,2022-06-07 19:17:20,15.08838883,0.0002296,53.2131,183.2705,45.1231,314.9948,-4.5992e-05,-1.02e-05,0.0,0 STARLINK-3250,1 49749U 21115AB  22158.80371473 -.00001020  00000-0 -45992-4 0  9992,2 49749  53.2131 183.2705 0002296  45.1231 314.9948 15.08838883 28573,6917.884,95.438,541.337,538.16,0.0
49749,STARLINK-3250,PAYLOAD,2022-06-08 01:38:53,15.08841148,0.0002312,53.2129,182.0809,44.726,315.3918,-2.3943e-05,-6.69e-06,0.0,0 STARLINK-3250,1 49749U 21115AB  22159.06867238 -.00000669  00000-0 -23943-4 0  9990,2 49749  53.2129 182.0809 0002312  44.7260 315.3918 15.08841148 29726,6917.877,95.437,541.341,538.142,0.0
